OBJECT_NAME,OBJECT_ID,EPOCH,MEAN_MOTION,ECCENTRICITY,INCLINATION,RA_OF_ASC_NODE,ARG_OF_PERICENTER,MEAN_ANOMALY,EPHEMERIS_TYPE,CLASSIFICATION_TYPE,NORAD_CAT_ID,ELEMENT_SET_NO,REV_AT_EPOCH,BSTAR,MEAN_MOTION_DOT,MEAN_MOTION_DDOT
STARLINK-32792,2025-003T,2025-10-13T16:22:24.687552,15.27587004,.00013493,43.0073,38.7590,272.2647,87.8051,0,U,62504,999,4407,.13237935E-2,.36353E-3,0
STARLINK-32725,2025-003U,2025-10-13T16:24:15.707232,15.27576186,.00015337,43.0038,38.7561,285.6042,74.4640,0,U,62505,999,4407,.12707272E-2,.34867E-3,0
STARLINK-32681,2025-003V,2025-10-13T15:39:32.136192,15.27584547,.00011164,43.0006,20.8029,272.7417,87.3307,0,U,62506,999,4439,.12041216E-2,.33026E-3,0
STARLINK-32679,2025-003W,2025-10-13T16:18:54.916128,15.27587940,.00006627,43.0033,39.5671,289.5457,70.5323,0,U,62507,999,4418,.4461778E-3,.12039E-3,0
STARLINK-32749,2025-003X,2025-10-13T01:08:35.455776,15.27595621,.00020182,43.0063,42.5951,272.7884,87.2737,0,U,62508,999,4397,.10171976E-2,.27848E-3,0
STARLINK-32744,2025-003Y,2025-10-13T16:07:48.951840,15.27607270,.00019009,43.0037,39.5494,276.7698,83.2938,0,U,62509,999,4406,.13447549E-2,.3696E-3,0
STARLINK-32701,2025-003Z,2025-10-13T17:10:31.462752,15.27609914,.00013088,43.0036,39.0118,265.8993,94.1709,0,U,62510,999,4407,.12816031E-2,.35205E-3,0
STARLINK-11452 [DTC],2025-004A,2025-10-13T21:45:44.545248,15.70888607,.00016899,42.9999,235.4679,292.5528,67.5160,0,U,62511,999,4504,.11982735E-2,.156556E-2,0
STARLINK-11443 [DTC],2025-004B,2025-10-13T04:12:53.810784,15.70932696,.00009249,42.9994,240.3232,270.1579,89.9183,0,U,62512,999,4400,.23117488E-2,.30867E-2,0
STARLINK-11440 [DTC],2025-004C,2025-10-13T22:08:40.771968,15.70793419,.00015017,42.9992,235.5942,238.3487,121.7234,0,U,62513,999,4412,.22624709E-2,.299997E-2,0
STARLINK-11514 [DTC],2025-004D,2025-10-13T21:39:24.424128,15.70904932,.00019374,42.9988,235.4312,288.6053,71.4604,0,U,62514,999,4412,.1283836E-2,.16812E-2,0
STARLINK-11508 [DTC],2025-004E,2025-10-13T21:30:27.148320,15.70865896,.00010448,42.9983,235.3802,272.7060,87.3688,0,U,62515,999,4412,.25345502E-2,.338756E-2,0
STARLINK-11510 [DTC],2025-004F,2025-10-13T22:16:19.512768,15.70851373,.00010788,42.9987,235.6369,251.3425,108.7326,0,U,62516,999,4412,.23453202E-2,.312226E-2,0
STARLINK-11512 [DTC],2025-004G,2025-10-13T13:29:42.640512,15.70949918,.00028075,42.9970,237.1673,283.1559,76.8995,0,U,62517,999,4407,.21409179E-2,.285224E-2,0
STARLINK-11450 [DTC],2025-004H,2025-10-13T21:53:22.135200,15.70926929,.00021212,43.0006,235.5081,260.1869,99.8760,0,U,62518,999,4412,.19222743E-2,.25485E-2,0
STARLINK-11507 [DTC],2025-004J,2025-10-13T22:01:02.245440,15.70770112,.00006791,42.9986,235.5495,232.0405,128.0402,0,U,62519,999,4412,.20539569E-2,.271092E-2,0
STARLINK-11482 [DTC],2025-004K,2025-10-13T21:15:08.772480,15.70972858,.00016358,42.9982,235.2924,295.8030,64.2669,0,U,62520,999,4412,.18291459E-2,.242585E-2,0
STARLINK-11528 [DTC],2025-004L,2025-10-13T20:52:24.885408,15.71002638,.00034011,42.9991,236.0573,289.9771,70.0730,0,U,62521,999,4411,.19771774E-2,.263271E-2,0
STARLINK-11516 [DTC],2025-004M,2025-10-13T21:38:05.712000,15.70915410,.00012363,42.9979,235.4197,312.4897,47.5866,0,U,62522,999,4412,.13822583E-2,.181411E-2,0
STARLINK-11527 [DTC],2025-004N,2025-10-13T21:22:47.376768,15.70988023,.00016012,42.9986,235.3335,253.7685,106.3007,0,U,62523,999,4412,.31326596E-2,.425424E-2,0
STARLINK-32748,2025-004P,2025-10-13T20:25:40.134144,15.27571301,.00008517,43.0018,328.9649,290.6719,69.4042,0,U,62524,999,4400,.11004137E-2,.30134E-3,0
STARLINK-32777,2025-004Q,2025-10-13T19:48:52.126848,15.27587412,.00011112,43.0023,329.6310,276.9476,83.1249,0,U,62525,999,4399,.16527479E-2,.45509E-3,0
STARLINK-32741,2025-004R,2025-10-13T19:32:54.959136,15.27594485,.00018478,42.9998,326.0832,278.7429,81.3213,0,U,62526,999,4403,.16813084E-2,.46316E-3,0
STARLINK-32754,2025-004S,2025-10-13T12:57:04.844160,15.27618927,.00021795,43.0016,330.9256,278.6869,81.3736,0,U,62527,999,4300,.1564952E-2,.43106E-3,0
STARLINK-32786,2025-004T,2025-10-13T19:59:45.433536,15.27608232,.00021771,43.0022,328.8246,271.1958,88.8645,0,U,62528,999,4305,.10194346E-2,.27922E-3,0
STARLINK-32789,2025-004U,2025-10-13T19:22:58.306656,15.27573811,.00001509,43.0010,329.4916,346.6190,13.4657,0,U,62529,999,4399,.92874653E-3,.25378E-3,0
STARLINK-32791,2025-004V,2025-10-13T12:45:58.358880,15.27611208,.00016735,43.0025,330.8639,260.8745,99.1918,0,U,62530,999,4395,.15743964E-2,.43359E-3,0
STARLINK-32785,2025-004W,2025-10-13T19:34:04.354752,15.27562565,.00004279,43.0009,329.5554,302.4962,57.5848,0,U,62531,999,4399,.10802766E-2,.29568E-3,0
STARLINK-11538 [DTC],2025-006A,2025-10-13T08:23:36.644352,15.70894787,.00024149,43.0018,307.6567,264.9449,95.1143,0,U,62554,999,4343,.12656357E-2,.165614E-2,0
