STARLINK-32792          
1 62504U 25003T   25286.68223018  .00036353  00000+0  13238-2 0  9998
2 62504  43.0073  38.7590 0001349 272.2647  87.8051 15.27587004 44078
STARLINK-32725          
1 62505U 25003U   25286.68351513  .00034867  00000+0  12707-2 0  9999
2 62505  43.0038  38.7561 0001533 285.6042  74.4640 15.27576186 44075
STARLINK-32681          
1 62506U 25003V   25286.65245528  .00033026  00000+0  12041-2 0  9992
2 62506  43.0006  20.8029 0001116 272.7417  87.3307 15.27584547 44390
STARLINK-32679          
1 62507U 25003W   25286.67980227  .00012039  00000+0  44618-3 0  9994
2 62507  43.0033  39.5671 0000662 289.5457  70.5323 15.27587940 44185
STARLINK-32749          
1 62508U 25003X   25286.04763259  .00027848  00000+0  10172-2 0  9991
2 62508  43.0063  42.5951 0002018 272.7884  87.2737 15.27595621 43974
STARLINK-32744          
1 62509U 25003Y   25286.67209435  .00036960  00000+0  13448-2 0  9996
2 62509  43.0037  39.5494 0001900 276.7698  83.2938 15.27607270 44064
STARLINK-32701          
1 62510U 25003Z   25286.71564193  .00035205  00000+0  12816-2 0  9997
2 62510  43.0036  39.0118 0001308 265.8993  94.1709 15.27609914 44077
STARLINK-11452 [DTC]    
1 62511U 25004A   25286.90676557  .00156556  00000+0  11983-2 0  9995
2 62511  42.9999 235.4679 0001689 292.5528  67.5160 15.70888607 45040
STARLINK-11443 [DTC]    
1 62512U 25004B   25286.17562281  .00308670  00000+0  23117-2 0  9991
2 62512  42.9994 240.3232 0000924 270.1579  89.9183 15.70932696 44001
STARLINK-11440 [DTC]    
1 62513U 25004C   25286.92269412  .00299997  00000+0  22625-2 0  9999
2 62513  42.9992 235.5942 0001501 238.3487 121.7234 15.70793419 44123
STARLINK-11514 [DTC]    
1 62514U 25004D   25286.90236602  .00168120  00000+0  12838-2 0  9991
2 62514  42.9988 235.4312 0001937 288.6053  71.4604 15.70904932 44125
STARLINK-11508 [DTC]    
1 62515U 25004E   25286.89614755  .00338756  00000+0  25346-2 0  9991
2 62515  42.9983 235.3802 0001044 272.7060  87.3688 15.70865896 44128
STARLINK-11510 [DTC]    
1 62516U 25004F   25286.92800362  .00312226  00000+0  23453-2 0  9998
2 62516  42.9987 235.6369 0001078 251.3425 108.7326 15.70851373 44121
STARLINK-11512 [DTC]    
1 62517U 25004G   25286.56229908  .00285224  00000+0  21409-2 0  9996
2 62517  42.9970 237.1673 0002807 283.1559  76.8995 15.70949918 44075
STARLINK-11450 [DTC]    
1 62518U 25004H   25286.91206175  .00254850  00000+0  19223-2 0  9999
2 62518  43.0006 235.5081 0002121 260.1869  99.8760 15.70926929 44129
STARLINK-11507 [DTC]    
1 62519U 25004J   25286.91738710  .00271092  00000+0  20540-2 0  9996
2 62519  42.9986 235.5495 0000679 232.0405 128.0402 15.70770112 44123
STARLINK-11482 [DTC]    
1 62520U 25004K   25286.88551820  .00242585  00000+0  18291-2 0  9994
2 62520  42.9982 235.2924 0001635 295.8030  64.2669 15.70972858 44126
STARLINK-11528 [DTC]    
1 62521U 25004L   25286.86973247  .00263271  00000+0  19772-2 0  9994
2 62521  42.9991 236.0573 0003401 289.9771  70.0730 15.71002638 44119
STARLINK-11516 [DTC]    
1 62522U 25004M   25286.90145500  .00181411  00000+0  13823-2 0  9999
2 62522  42.9979 235.4197 0001236 312.4897  47.5866 15.70915410 44126
STARLINK-11527 [DTC]    
1 62523U 25004N   25286.89082612  .00425424  00000+0  31327-2 0  9996
2 62523  42.9986 235.3335 0001601 253.7685 106.3007 15.70988023 44127
STARLINK-32748          
1 62524U 25004P   25286.85115896  .00030134  00000+0  11004-2 0  9994
2 62524  43.0018 328.9649 0000851 290.6719  69.4042 15.27571301 44001
STARLINK-32777          
1 62525U 25004Q   25286.82560332  .00045509  00000+0  16527-2 0  9998
2 62525  43.0023 329.6310 0001111 276.9476  83.1249 15.27587412 43997
STARLINK-32741          
1 62526U 25004R   25286.81452499  .00046316  00000+0  16813-2 0  9997
2 62526  42.9998 326.0832 0001847 278.7429  81.3213 15.27594485 44036
STARLINK-32754          
1 62527U 25004S   25286.53963940  .00043106  00000+0  15650-2 0  9997
2 62527  43.0016 330.9256 0002179 278.6869  81.3736 15.27618927 43004
STARLINK-32786          
1 62528U 25004T   25286.83316474  .00027922  00000+0  10194-2 0  9991
2 62528  43.0022 328.8246 0002177 271.1958  88.8645 15.27608232 43056
STARLINK-32789          
1 62529U 25004U   25286.80761929  .00025378  00000+0  92875-3 0  9998
2 62529  43.0010 329.4916 0000150 346.6190  13.4657 15.27573811 43994
STARLINK-32791          
1 62530U 25004V   25286.53192545  .00043359  00000+0  15744-2 0  9990
2 62530  43.0025 330.8639 0001673 260.8745  99.1918 15.27611208 43954
STARLINK-32785          
1 62531U 25004W   25286.81532818  .00029568  00000+0  10803-2 0  9990
2 62531  43.0009 329.5554 0000427 302.4962  57.5848 15.27562565 43993
STARLINK-11538 [DTC]    
1 62554U 25006A   25286.34972968  .00165614  00000+0  12656-2 0  9990
2 62554  43.0018 307.6567 0002414 264.9449  95.1143 15.70894787 43436
